     2.100          NAVIGATION                              RINEX VERSION / TYPE
fic2rin                                 04/24/2012 00:19:31 PGM / RUN BY / DATE
                                                            END OF HEADER
18 12  4 23 22  0  0.0  .192419160157D-03  .181898940355D-11  .000000000000D+00
     .104000000000D+03  .714062500000D+02  .485841665827D-08  .170884671696D+01
     .374577939510D-05  .131335086189D-01  .102594494820D-04  .515369668770D+04
     .165600000000D+06 -.322237610817D-06  .453889050667D+00 -.126659870148D-06
     .930410134517D+00  .165187500000D+03 -.218556893011D+01 -.821248494010D-08
    -.189293599124D-10  .100000000000D+01  .168500000000D+04  .000000000000D+00
     .340000000000D+01  .000000000000D+00 -.107102096081D-07  .104000000000D+03
     .158406000000D+06  .400000000000D+01
19 12  4 23 22  0  0.0 -.258510001004D-03 -.375166564481D-11  .000000000000D+00
     .710000000000D+02  .110625000000D+02  .483805866742D-08 -.612873936065D+00
     .521540641785D-06  .816352933180D-02  .571459531784D-05  .515376832390D+04
     .165600000000D+06  .223517417908D-06 -.156164310731D+01 -.223517417908D-07
     .959696284231D+00  .269500000000D+03  .148783615309D+00 -.818176937496D-08
     .170364239212D-09  .100000000000D+01  .168500000000D+04  .000000000000D+00
     .240000000000D+01  .000000000000D+00 -.144354999065D-07  .710000000000D+02
     .158406000000D+06  .400000000000D+01
21 12  4 23 22  0  0.0 -.219231005758D-03 -.250111042988D-11  .000000000000D+00
     .340000000000D+02 -.343750000000D+02  .510914138767D-08  .276691389773D+01
    -.194087624550D-05  .190329268808D-01  .731833279133D-05  .515362266350D+04
     .165600000000D+06 -.186264514923D-08 -.596789423886D+00 -.240281224251D-06
     .931506496527D+00  .220875000000D+03 -.226268133895D+01 -.799068998717D-08
    -.467876631797D-09  .100000000000D+01  .168500000000D+04  .000000000000D+00
     .240000000000D+01  .000000000000D+00 -.111758708954D-07  .340000000000D+02
     .158406000000D+06  .400000000000D+01
22 12  4 23 22  0  0.0  .143539626151D-03  .341060513165D-12  .000000000000D+00
     .550000000000D+02  .819062500000D+02  .500306554062D-08  .881604577546D+00
     .426732003689D-05  .595655350480D-02  .100154429674D-04  .515368753433D+04
     .165600000000D+06 -.800937414169D-07  .457337547956D+00  .558793544769D-08
     .928126190238D+00  .169187500000D+03 -.201555654043D+01 -.826713007344D-08
    -.753602819154D-10  .100000000000D+01  .168500000000D+04  .000000000000D+00
     .240000000000D+01  .000000000000D+00 -.167638063431D-07  .550000000000D+02
     .158406000000D+06  .400000000000D+01
23 12  4 23 22  0  0.0  .211934559047D-03 -.363797880709D-11  .000000000000D+00
     .230000000000D+02  .790000000000D+02  .475162649574D-08 -.100754810931D+01
     .399351119995D-05  .775918469299D-02  .229105353355D-05  .515364219093D+04
     .165600000000D+06  .106170773506D-06  .150489647113D+01 -.124797224998D-06
     .960281243728D+00  .331562500000D+03 -.302239096516D+01 -.841606484860D-08
     .343585740297D-09  .100000000000D+01  .168500000000D+04  .000000000000D+00
     .240000000000D+01  .000000000000D+00 -.200234353542D-07  .230000000000D+02
     .158406000000D+06  .400000000000D+01
25 12  4 23 22  0  0.0  .332738272846D-04  .341060513165D-12  .000000000000D+00
     .340000000000D+02 -.460312500000D+02  .411445709794D-08  .230855392657D+01
    -.246055424213D-05  .156056601554D-02  .107884407043D-04  .515373257828D+04
     .165600000000D+06 -.484287738800D-07 -.270724292635D+01 -.130385160446D-07
     .968479717525D+00  .174906250000D+03  .627653082053D+00 -.769853496060D-08
     .205365697163D-09  .100000000000D+01  .168500000000D+04  .000000000000D+00
     .240000000000D+01  .000000000000D+00  .558793544769D-08  .340000000000D+02
     .158406000000D+06  .400000000000D+01
26 12  4 23 22  0  0.0 -.344384927303D-03 -.527506927028D-10  .000000000000D+00
     .290000000000D+02  .645312500000D+02  .429767901558D-08 -.115430015712D+01
     .389851629734D-05  .209625440184D-01  .263936817646D-05  .515365982437D+04
     .165600000000D+06  .143423676491D-06  .157696802415D+01  .482425093651D-06
     .983362541980D+00  .341250000000D+03  .118947804116D+01 -.823212861549D-08
     .220366321999D-09  .100000000000D+01  .168500000000D+04  .000000000000D+00
     .240000000000D+01  .000000000000D+00 -.605359673500D-08  .290000000000D+02
     .158406000000D+06  .400000000000D+01
28 12  4 23 22  0  0.0  .136672053486D-03  .409272615798D-11  .000000000000D+00
     .980000000000D+02 -.546562500000D+02  .401588156330D-08  .798521825936D+00
    -.276416540146D-05  .178400212899D-01  .111199915409D-04  .515371534920D+04
     .165600000000D+06 -.257045030594D-06 -.264867873295D+01  .298023223877D-07
     .978808267339D+00  .182906250000D+03 -.182806197835D+01 -.794461663946D-08
     .128933942045D-09  .100000000000D+01  .168500000000D+04  .000000000000D+00
     .240000000000D+01  .000000000000D+00 -.107102096081D-07  .980000000000D+02
     .158406000000D+06  .400000000000D+01
29 12  4 23 22  0  0.0  .306232366711D-03  .375166564481D-11  .000000000000D+00
     .160000000000D+02  .212500000000D+02  .470126725522D-08  .302449942656D+01
     .103190541267D-05  .232380919624D-02  .593438744545D-05  .515358953857D+04
     .165600000000D+06 -.186264514923D-08 -.160624395391D+01  .353902578354D-07
     .962849358381D+00  .265281250000D+03 -.115237304782D+01 -.804283501636D-08
     .233581158164D-09  .100000000000D+01  .168500000000D+04  .000000000000D+00
     .240000000000D+01  .000000000000D+00 -.931322574615D-08  .160000000000D+02
     .158406000000D+06  .400000000000D+01
30 12  4 23 22  0  0.0 -.145868863910D-03 -.197815097636D-10  .000000000000D+00
     .107000000000D+03 -.607500000000D+02  .442268422255D-08  .104491579008D+00
    -.293366611004D-05  .109840253135D-01  .109821557999D-04  .515364818764D+04
     .165600000000D+06 -.145286321640D-06 -.279777686394D+01 -.130385160446D-07
     .959761281681D+00  .169500000000D+03  .155695800976D+01 -.806855037322D-08
     .115361948145D-09  .100000000000D+01  .168500000000D+04  .000000000000D+00
     .136500000000D+02  .000000000000D+00 -.419095158577D-08  .107000000000D+03
     .158406000000D+06  .400000000000D+01
31 12  4 23 22  0  0.0  .234517268836D-03  .420641299570D-11  .000000000000D+00
     .730000000000D+02 -.998125000000D+02  .422589031101D-08 -.260732004196D+01
    -.500492751598D-05  .785255653318D-02  .494718551636D-05  .515363525772D+04
     .165600000000D+06 -.670552253723D-07  .255673646314D+01  .115483999252D-06
     .980914020881D+00  .294843750000D+03 -.867929412447D+00 -.788211403597D-08
    -.248938940735D-09  .100000000000D+01  .168500000000D+04  .000000000000D+00
     .240000000000D+01  .000000000000D+00 -.130385160446D-07  .730000000000D+02
     .158406000000D+06  .400000000000D+01
32 12  4 23 22  0  0.0 -.436164438725D-03 -.443378667114D-11  .000000000000D+00
     .180000000000D+02  .106343750000D+03  .426160608443D-08 -.201228683221D+01
     .550039112568D-05  .118105575675D-01  .104736536741D-04  .515370833778D+04
     .165600000000D+06 -.268220901489D-06  .531764435655D+00  .298023223877D-07
     .952310720364D+00  .176781250000D+03 -.587873650634D+00 -.788461414011D-08
     .742888087128D-10  .100000000000D+01  .168500000000D+04  .000000000000D+00
     .240000000000D+01  .000000000000D+00 -.279396772385D-08  .180000000000D+02
     .158406000000D+06  .400000000000D+01
27 12  4 23 21 59 44.0  .380612444133D-03  .397903932026D-11  .000000000000D+00
     .350000000000D+02 -.850625000000D+02  .431625121776D-08 -.247181036014D+00
    -.457651913166D-05  .217396649532D-01  .443495810032D-05  .515374099731D+04
     .165584000000D+06 -.255182385445D-06  .250121381247D+01 -.257045030594D-06
     .982023023966D+00  .309812500000D+03 -.109397838322D+01 -.840070706603D-08
    -.133576992589D-09  .100000000000D+01  .168500000000D+04  .000000000000D+00
     .240000000000D+01  .000000000000D+00 -.419095158577D-08  .350000000000D+02
     .158436000000D+06  .400000000000D+01
18 12  4 23 21 59 44.0  .192420557141D-03  .181898940355D-11  .000000000000D+00
     .200000000000D+01  .714062500000D+02  .485841665827D-08  .170651270870D+01
     .374577939510D-05  .131335096667D-01  .102594494820D-04  .515369668961D+04
     .165584000000D+06 -.322237610817D-06  .453889195495D+00 -.126659870148D-06
     .930410143294D+00  .165187500000D+03 -.218556860241D+01 -.821248494010D-08
    -.189293599124D-10  .100000000000D+01  .168500000000D+04  .000000000000D+00
     .240000000000D+01  .000000000000D+00 -.107102096081D-07  .200000000000D+01
     .158946000000D+06  .400000000000D+01
16 12  4 23 21 59 44.0 -.232443679124D-03 -.136424205266D-11  .000000000000D+00
     .240000000000D+02 -.458750000000D+02  .388659046352D-08  .120252540082D+01
    -.211410224438D-05  .663835275918D-02  .109430402517D-04  .515366117477D+04
     .165584000000D+06  .372529029846D-07 -.265545334419D+01  .745058059692D-07
     .980460459222D+00  .174625000000D+03 -.408299587431D-01 -.762174604774D-08
     .131434046184D-09  .100000000000D+01  .168500000000D+04  .000000000000D+00
     .240000000000D+01  .000000000000D+00 -.977888703346D-08  .240000000000D+02
     .163206000000D+06  .400000000000D+01
16 12  4 23 23 59 44.0 -.232453923672D-03 -.136424205266D-11  .000000000000D+00
     .250000000000D+02 -.429687500000D+02  .395373611755D-08  .225272261629D+01
    -.205263495445D-05  .663855101448D-02  .112596899271D-04  .515366096687D+04
     .172784000000D+06 -.782310962677D-07 -.265550862347D+01  .147148966789D-06
     .980461696851D+00  .174906250000D+03 -.408427987751D-01 -.758567311659D-08
     .222152110670D-09  .100000000000D+01  .168500000000D+04  .000000000000D+00
     .240000000000D+01  .000000000000D+00 -.977888703346D-08  .250000000000D+02
     .165606000000D+06  .400000000000D+01
